IRIDIUM 150             
1 43257U 18030J   25355.72680039  .00000222  00000+0  72175-4 0  9999
2 43257  86.3966   4.6507 0002371  92.2709 267.8758 14.34217530404725
IRIDIUM 143             
1 43258U 18030K   25355.98683729  .00000275  00000+0  91259-4 0  9999
2 43258  86.3993   4.6279 0002546  89.6011 270.5476 14.34217963404696
IRIDIUM 161             
1 43478U 18047C   25356.02869715  .00000095  00000+0  22106-4 0  9993
2 43478  86.4510 162.5013 0001858  89.9699 270.1714 14.43281171399580
IRIDIUM 152             
1 43479U 18047D   25355.95956194  .00000066  00000+0  16627-4 0  9992
2 43479  86.3985 162.3907 0001854  93.7856 266.3552 14.34218083397082
IRIDIUM 147             
1 43480U 18047E   25355.82635397  .00000192  00000+0  61381-4 0  9996
2 43480  86.3985 162.4485 0002162  89.8448 270.2996 14.34218015397061
IRIDIUM 110             
1 43481U 18047F   25355.83270735  .00000059  00000+0  14029-4 0  9998
2 43481  86.3989 162.5329 0001505  87.2083 272.9285 14.34217610397050
IRIDIUM 162             
1 43482U 18047G   25356.02240277  .00000079  00000+0  17578-4 0  9993
2 43482  86.4509 162.3974 0001937 100.9119 259.2300 14.43279346399575
IRIDIUM 160             
1 43569U 18061A   25355.91808385  .00000264  00000+0  87279-4 0  9993
2 43569  86.3981 130.9179 0001856  89.7783 270.3625 14.34219243387967
